[{"OBJECT_NAME":"STARLINK-3724","OBJECT_ID":"2022-041AW","EPOCH":"2026-03-09T09:36:04.916160","MEAN_MOTION":15.08841424,"ECCENTRICITY":0.0001474,"INCLINATION":53.2173,"RA_OF_ASC_NODE":100.5251,"ARG_OF_PERICENTER":86.0377,"MEAN_ANOMALY":274.0784,"EPHEMERIS_TYPE":0,"CLASSIFICATION_TYPE":"U","NORAD_CAT_ID":52305,"ELEMENT_SET_NO":999,"REV_AT_EPOCH":21446,"BSTAR":0.00040370289,"MEAN_MOTION_DOT":6.143e-5,"MEAN_MOTION_DDOT":0},{"OBJECT_NAME":"YUNYAO-1 47","OBJECT_ID":"2025-059E","EPOCH":"2026-03-09T22:46:15.708288","MEAN_MOTION":15.10508558,"ECCENTRICITY":0.00172664,"INCLINATION":97.6066,"RA_OF_ASC_NODE":250.9227,"ARG_OF_PERICENTER":135.6694,"MEAN_ANOMALY":224.5922,"EPHEMERIS_TYPE":0,"CLASSIFICATION_TYPE":"U","NORAD_CAT_ID":63348,"ELEMENT_SET_NO":999,"REV_AT_EPOCH":5331,"BSTAR":0.00029014568,"MEAN_MOTION_DOT":4.732e-5,"MEAN_MOTION_DDOT":0}]
